{"version": 0.6, "generator": "Overpass API 0.7.62.5 1bd436f1", "osm3s": {"timestamp_osm_base": "2025-05-31T17:43:44Z", "copyright": "The data included in this document is from www.openstreetmap.org. The data is made available under ODbL."}, "elements": [{"type": "node", "id": 1472085199, "lat": 49.4858116, "lon": 0.1303057, "tags": {"addr:city": "Le Havre", "addr:housenumber": "22", "addr:postcode": "76600", "addr:street": "Rue Louis Eudier", "amenity": "cafe", "check_date": "2024-12-18", "delivery:covid19": "no", "name": "Le Jean Bart", "ref:FR:SIRET": "90488993800018", "shop": "tobacco"}}, {"type": "node", "id": 1692997867, "lat": 49.4853895, "lon": 0.1360866, "tags": {"addr:city": "Le Havre", "addr:housenumber": "71", "addr:postcode": "76600", "addr:street": "Boulevard de l'Amiral Mouchez", "amenity": "cafe", "name": "Caf\u00e9 du port", "ref:FR:SIRET": "47778742800028"}}, {"type": "node", "id": 1867025618, "lat": 49.4973379, "lon": 0.1122287, "tags": {"addr:housenumber": "49", "addr:postcode": "76600", "addr:street": "Avenue Ren\u00e9 Coty", "amenity": "cafe", "name": "La Cave"}}, {"type": "node", "id": 1867056737, "lat": 49.4914251, "lon": 0.1088029, "tags": {"addr:city": "Le Havre", "addr:housenumber": "148", "addr:postcode": "76600", "addr:street": "Rue Victor Hugo", "amenity": "cafe", "cuisine": "french", "name": "Caf\u00e9 de la librairie La Galerne", "ref:FR:SIRET": "40516546500023"}}, {"type": "node", "id": 1867079781, "lat": 49.4907206, "lon": 0.1038242, "tags": {"addr:city": "Le Havre", "addr:housenumber": "29", "addr:postcode": "76600", "addr:street": "Place des Halles Centrales", "amenity": "cafe", "name": "L'impr\u00e9vu", "ref:FR:SIRET": "90040926900017"}}, {"type": "node", "id": 1867206421, "lat": 49.492468, "lon": 0.1236389, "tags": {"addr:city": "Le Havre", "addr:housenumber": "3", "addr:postcode": "76600", "addr:street": "Cours de la R\u00e9publique", "amenity": "cafe", "name": "Champs Elys\u00e9es", "opening_hours": "Mo-Fr 06:00-24:00, Sa,Su 07:00-24:00", "ref:FR:SIRET": "50233116800018"}}, {"type": "node", "id": 1886749051, "lat": 49.4845523, "lon": 0.1334059, "tags": {"addr:city": "Le Havre", "addr:housenumber": "4;6", "addr:postcode": "76600", "addr:street": "Rue Paul Marion", "amenity": "cafe", "check_date": "2024-12-03", "delivery:covid19": "no", "name": "Le Narval", "ref:FR:SIRET": "50378099100017", "shop": "tobacco", "source": "cadastre-dgi-fr source : Direction G\u00e9n\u00e9rale des Imp\u00f4ts - Cadastre. Mise \u00e0 jour : 2014"}}, {"type": "node", "id": 2013890472, "lat": 49.4998758, "lon": 0.1253211, "tags": {"addr:city": "Le Havre", "addr:housenumber": "124", "addr:postcode": "76600", "addr:street": "Rue Mar\u00e9chal Joffre", "amenity": "cafe", "check_date": "2024-04-24", "name": "Le Saint-Patrick", "ref:FR:SIRET": "35187458100033"}}, {"type": "node", "id": 2013912421, "lat": 49.496269, "lon": 0.1075245, "tags": {"addr:city": "Le Havre", "addr:housenumber": "47", "addr:postcode": "76600", "addr:street": "Rue Henry G\u00e9nestal", "amenity": "cafe", "capacity": "35", "check_date": "2024-11-28", "name": "Le bistrot panache", "old_name": "Le teleski", "opening_hours": "Mo-Sa 12:00-18:00", "outdoor_seating": "yes", "ref:FR:SIRET": "92804824800019", "start_date": "2024-06-17"}}, {"type": "node", "id": 2014021260, "lat": 49.4955732, "lon": 0.1241716, "tags": {"addr:housenumber": "1", "addr:street": "Rue Turenne", "amenity": "cafe", "bar": "yes", "name": "Bar de l'Universit\u00e9", "ref:FR:SIRET": "42313470900025"}}, {"type": "node", "id": 2014622796, "lat": 49.495774, "lon": 0.0965902, "tags": {"addr:city": "Le Havre", "addr:housenumber": "4", "addr:postcode": "76600", "addr:street": "Rue de l'Alma", "amenity": "cafe", "check_date": "2024-07-19", "name": "Le Troph\u00e9e", "ref:FR:SIRET": "38326086600017"}}, {"type": "node", "id": 2014631143, "lat": 49.4916202, "lon": 0.1064098, "tags": {"addr:city": "Le Havre", "addr:housenumber": "112", "addr:postcode": "76600", "addr:street": "Rue Victor Hugo", "amenity": "cafe", "contact:facebook": "https://www.facebook.com/cargocoffeeLH", "name": "Le Cargo", "note": "suite aux travaux, s'est d\u00e9plac\u00e9 du 110 au 112", "outdoor_seating": "yes", "phone": "+33 2 35 46 69 14", "ref:FR:SIRET": "83885260600055"}}, {"type": "node", "id": 2014632188, "lat": 49.4952841, "lon": 0.1089207, "tags": {"amenity": "cafe"}}, {"type": "node", "id": 2014632189, "lat": 49.495439, "lon": 0.1094001, "tags": {"addr:city": "Le Havre", "addr:housenumber": "11", "addr:postcode": "76600", "addr:street": "Avenue Ren\u00e9 Coty", "amenity": "cafe", "name": "Le Deauville", "ref:FR:SIRET": "85068076000012"}}, {"type": "node", "id": 2017640590, "lat": 49.4969985, "lon": 0.1120447, "tags": {"addr:city": "Le Havre", "addr:housenumber": "80", "addr:postcode": "76600", "addr:street": "Rue du Mar\u00e9chal Gallieni", "amenity": "cafe", "check_date": "2024-11-28", "cuisine": "french", "indoor_seating": "yes", "name": "Le Funiculaire", "opening_hours": "Mo-We 07:00-21:00; Th-Fr 07:00-22:30; Sa 08:00-21:00", "outdoor_seating": "yes", "phone": "+33 2 35 42 26 69", "ref:FR:SIRET": "82408383600018"}}, {"type": "node", "id": 2017652846, "lat": 49.4990574, "lon": 0.1294791, "tags": {"amenity": "cafe", "name": "Le Vincennes"}}, {"type": "node", "id": 2111109526, "lat": 49.4953449, "lon": 0.1128627, "tags": {"addr:city": "Le Havre", "addr:housenumber": "40", "addr:postcode": "76600", "addr:street": "Rue du Mar\u00e9chal Gallieni", "amenity": "cafe", "check_date": "2024-12-07", "contact:instagram": "https://www.instagram.com/noisette.cafe_/", "indoor_seating": "yes", "name": "Noisette caf\u00e9", "outdoor_seating": "yes", "ref:FR:SIRET": "92504367100013"}}, {"type": "node", "id": 2111128879, "lat": 49.4941365, "lon": 0.1101727, "tags": {"addr:city": "Le Havre", "addr:housenumber": "7", "addr:postcode": "76600", "addr:street": "Rue Jules Lecesne", "amenity": "cafe", "name": "7 Caf\u00e9", "ref:FR:SIRET": "89805579300027", "source": "cadastre-dgi-fr source : Direction G\u00e9n\u00e9rale des Imp\u00f4ts - Cadastre. Mise \u00e0 jour : 2014"}}, {"type": "node", "id": 2111224047, "lat": 49.491793, "lon": 0.107153, "tags": {"addr:city": "Le Havre", "addr:housenumber": "123", "addr:postcode": "76600", "addr:street": "Rue Victor Hugo", "amenity": "cafe", "contact:facebook": "https://www.facebook.com/Au-Ca%C3%AFd-2113257942227746/", "name": "Au Ca\u00efd", "name:fr": "Au Ca\u00efd", "phone": "+33 2 35 21 27 94", "ref:FR:SIRET": "82446145300030"}}, {"type": "node", "id": 2111257087, "lat": 49.4954277, "lon": 0.1012863, "tags": {"addr:city": "Le Havre", "addr:housenumber": "64", "addr:postcode": "76600", "addr:street": "Rue Georges Braque", "amenity": "cafe", "name": "Le Diplomate", "name:fr": "Le diplomate", "ref:FR:SIRET": "41817088200017"}}, {"type": "node", "id": 2111257539, "lat": 49.4951106, "lon": 0.1036996, "tags": {"addr:city": "Le Havre", "addr:housenumber": "47", "addr:postcode": "76600", "addr:street": "Rue Raymond Gu\u00e9not", "amenity": "cafe", "check_date": "2023-06-26", "name": "Le Chiquito", "name:fr": "Le Chiquito", "ref:FR:SIRET": "90161607800019"}}, {"type": "node", "id": 2132533977, "lat": 49.5081902, "lon": 0.1455633, "tags": {"addr:housenumber": "113", "addr:street": "Avenue Rouget de Lisle", "amenity": "cafe", "name": "Le Lut\u00e9tia", "opening_hours": "Mo-Fr 07:30-20:00; Sa 07:30-13:30", "phone": "+33 2 35 47 19 03", "ref:FR:SIRET": "98233128200011"}}, {"type": "node", "id": 2141094146, "lat": 49.4961963, "lon": 0.1103004, "tags": {"addr:housenumber": "28", "addr:street": "Avenue Ren\u00e9 Coty", "amenity": "cafe", "name": "Tabac Thiers", "opening_hours": "Mo-Fr 07:30-19:15; Sa 08:30-19:15", "ref:FR:SIRET": "91878851400019", "tobacco": "yes"}}, {"type": "node", "id": 2266593247, "lat": 49.492454, "lon": 0.1173692, "tags": {"addr:city": "Le Havre", "addr:housenumber": "166-168", "addr:postcode": "76600", "addr:street": "Boulevard de Strasbourg", "amenity": "cafe", "contact:facebook": "https://www.facebook.com/cafedelapaixlehavre/", "name": "Caf\u00e9 de la Paix", "note": "indiqu\u00e9 au 168 sur facebook mais l'adresse officielle valid\u00e9e par la commune sur adresse.data.gouv.fr (et sur infogreffe) est le 166", "ref:FR:SIRET": "44267756300045", "tobacco": "yes"}}, {"type": "node", "id": 2501390030, "lat": 49.5052495, "lon": 0.0933234, "tags": {"amenity": "cafe", "name": "L'orangeraie", "note": "Salon de th\u00e9, Brunch, Boutique", "tea": "yes"}}, {"type": "node", "id": 2504928550, "lat": 49.5065421, "lon": 0.1000604, "tags": {"addr:city": "Le Havre", "addr:housenumber": "26", "addr:postcode": "76620", "addr:street": "Rue Ir\u00e8ne Joliot-Curie", "amenity": "cafe", "name": "Le Balto", "ref:FR:SIRET": "90189413900012", "tobacco": "yes"}}, {"type": "node", "id": 2700198623, "lat": 49.4874668, "lon": 0.1453964, "tags": {"addr:city": "Le Havre", "addr:housenumber": "173", "addr:postcode": "76600", "addr:street": "Rue Gustave Brindeau", "amenity": "cafe", "name": "Au T\u00e9l\u00e9phone", "ref:FR:SIRET": "82868860600015"}}, {"type": "node", "id": 2702538088, "lat": 49.5011933, "lon": 0.1467669, "tags": {"addr:city": "Le Havre", "addr:housenumber": "19", "addr:postcode": "76600", "addr:street": "Rue de Verdun", "amenity": "cafe", "name": "Chez Bruno", "source": "cadastre-dgi-fr source : Direction G\u00e9n\u00e9rale des Imp\u00f4ts - Cadastre. Mise \u00e0 jour : 2014"}}, {"type": "node", "id": 2704025406, "lat": 49.5016988, "lon": 0.1637763, "tags": {"addr:city": "Le Havre", "addr:housenumber": "24", "addr:postcode": "76600", "addr:street": "Avenue L\u00e9o Lagrange", "amenity": "cafe", "name": "Le Rami", "source": "cadastre-dgi-fr source : Direction G\u00e9n\u00e9rale des Imp\u00f4ts - Cadastre. Mise \u00e0 jour : 2014"}}, {"type": "node", "id": 2704718573, "lat": 49.4909442, "lon": 0.0973803, "tags": {"addr:city": "Le Havre", "addr:housenumber": "154", "addr:postcode": "76600", "addr:street": "Boulevard Clemenceau", "amenity": "cafe", "name": "La R\u00eaverie", "outdoor_seating": "no", "ref:FR:SIRET": "92760986700019", "source": "cadastre-dgi-fr source : Direction G\u00e9n\u00e9rale des Imp\u00f4ts - Cadastre. Mise \u00e0 jour : 2014"}}, {"type": "node", "id": 2720709336, "lat": 49.4945999, "lon": 0.113711, "tags": {"addr:city": "Le Havre", "addr:housenumber": "41", "addr:postcode": "76600", "addr:street": "Rue Lord Kitchener", "amenity": "cafe", "name": "Caf\u00e9 voisin", "opening_hours": "Tu-Sa 08:30-18:00", "ref:FR:SIRET": "94215157200016", "source": "cadastre-dgi-fr source : Direction G\u00e9n\u00e9rale des Imp\u00f4ts - Cadastre. Mise \u00e0 jour : 2014"}}, {"type": "node", "id": 4298026765, "lat": 49.4920692, "lon": 0.1087642, "tags": {"addr:city": "Le Havre", "addr:housenumber": "20", "addr:postcode": "76600", "addr:street": "Rue \u00c9douard Larue", "amenity": "cafe", "internet_access": "wlan", "name": "L'Air du Th\u00e9", "ref:FR:SIRET": "51271257100029", "source": "survey", "website": "http://www.lairduthe.com"}}, {"type": "node", "id": 4319312372, "lat": 49.491996, "lon": 0.1085482, "tags": {"addr:city": "Le Havre", "addr:housenumber": "15", "addr:postcode": "76600", "addr:street": "Rue \u00c9douard Larue", "amenity": "cafe", "name": "Chocolate Passion", "ref:FR:SIRET": "49929663000019", "source": "survey"}}, {"type": "node", "id": 4332373748, "lat": 49.5019619, "lon": 0.1616217, "tags": {"addr:city": "Le Havre", "addr:housenumber": "55", "addr:postcode": "76600", "addr:street": "Rue Auguste Blanqui", "amenity": "cafe", "contact:facebook": "https://www.facebook.com/au.bon.kir", "email": "lebonkir_lehavre@outlook.com", "name": "Au Bon Kir"}}, {"type": "node", "id": 4332373778, "lat": 49.5018759, "lon": 0.1542546, "tags": {"addr:city": "Le Havre", "addr:housenumber": "101", "addr:postcode": "76600", "addr:street": "Rue de Verdun", "amenity": "cafe", "name": "Au Cigarier"}}, {"type": "node", "id": 4571698809, "lat": 49.4951016, "lon": 0.1254729, "tags": {"addr:city": "Le Havre", "addr:housenumber": "27", "addr:postcode": "76600", "addr:street": "Rue Turenne", "amenity": "cafe", "check_date": "2024-12-28", "description": "Le D\u00e9cal\u00e9 est un caf\u00e9 ludique, avec plus de 400 jeux mis \u00e0 disposition.", "internet_access": "yes", "name": "Le D\u00e9cal\u00e9 - Caf\u00e9 Ludique", "ref:FR:SIRET": "82113796500025"}}, {"type": "node", "id": 6185591400, "lat": 49.492268, "lon": 0.1399249, "tags": {"amenity": "cafe", "name": "Le Nirvana"}}, {"type": "node", "id": 6185591443, "lat": 49.4933749, "lon": 0.1392295, "tags": {"amenity": "cafe", "name": "Sandwich Caf\u00e9", "opening_hours": "Mo-Sa 11:30-14:30, Mo,Tu,Th-Sa 18:30-22:00"}}, {"type": "node", "id": 6303729142, "lat": 49.4917625, "lon": 0.1082953, "tags": {"addr:city": "Le Havre", "addr:housenumber": "139", "addr:postcode": "76600", "addr:street": "Rue Victor Hugo", "amenity": "cafe", "check_date": "2024-12-28", "name": "Williamsburg", "ref:FR:SIRET": "80325468900018", "source": "survey (Fantoir:763517895)"}}, {"type": "node", "id": 6357847843, "lat": 49.4867381, "lon": 0.1457189, "tags": {"addr:city": "Le Havre", "addr:housenumber": "8", "addr:postcode": "76600", "addr:street": "Rue Marcel Toulouzan", "amenity": "cafe", "contact:email": "contact@artsportcafe.com", "contact:instagram": "artsportcafe", "name": "Art'Sport Caf\u00e9", "phone": "+33 2 35 26 38 66", "sport": "climbing", "website": "https://www.artsportcafe.com/"}}, {"type": "node", "id": 6645903586, "lat": 49.4955071, "lon": 0.1239214, "tags": {"addr:city": "Le Havre", "addr:housenumber": "2", "addr:postcode": "76600", "addr:street": "Rue Turenne", "amenity": "cafe", "cuisine": "italian_pizza", "name": "La Case \u00e0 Caf\u00e9", "name:ru": "\u041f\u0438\u0446\u0446\u0435\u0440\u0438\u044f La Case \u00e0 Cafe"}}, {"type": "node", "id": 6727003340, "lat": 49.4860011, "lon": 0.1083884, "tags": {"addr:city": "Le Havre", "addr:housenumber": "25", "addr:postcode": "76600", "addr:street": "Quai de Southampton", "amenity": "cafe", "check_date": "2024-12-28", "name": "Le Grand Quai", "outdoor_seating": "yes", "ref:FR:SIRET": "83866219500026"}}, {"type": "node", "id": 7843450287, "lat": 49.4912131, "lon": 0.1100421, "tags": {"addr:city": "Le Havre", "addr:housenumber": "7", "addr:postcode": "76600", "addr:street": "Rue du Chillou", "amenity": "cafe", "name": "Bonnie", "ref:FR:SIRET": "85325825900011"}}, {"type": "node", "id": 10208392482, "lat": 49.4880223, "lon": 0.1079054, "tags": {"addr:city": "Le Havre", "addr:housenumber": "7", "addr:postcode": "76600", "addr:street": "Rue du Docteur Belot", "amenity": "cafe", "capacity": "30", "check_date": "2025-04-25", "name": "Caf\u00e9 Moka", "opening_hours": "Tu-Sa 10:00-19:00", "ref:FR:SIRET": "94013777100017"}}, {"type": "node", "id": 10933513854, "lat": 49.4918503, "lon": 0.1054302, "tags": {"addr:city": "Le Havre", "addr:housenumber": "87", "addr:postcode": "76600", "addr:street": "Rue Victor Hugo", "amenity": "cafe", "check_date": "2023-08-12", "indoor_seating": "yes", "name": "Louise Caf\u00e9", "outdoor_seating": "yes"}}, {"type": "node", "id": 10981475406, "lat": 49.499141, "lon": 0.1289067, "tags": {"addr:city": "Le Havre", "addr:housenumber": "147", "addr:postcode": "76600", "addr:street": "Cours de la R\u00e9publique", "amenity": "cafe", "cuisine": "arab;cake;coffee_shop;tea", "name": "Golden Caf\u00e9", "opening_hours": "Mo-Th 07:00-19:30; Fr-Sa 07:00-20:00; Su 08:00-19:30"}}, {"type": "node", "id": 11044337683, "lat": 49.4920295, "lon": 0.1079006, "tags": {"addr:city": "Le Havre", "addr:housenumber": "186", "addr:postcode": "76600", "addr:street": "Rue de Paris", "amenity": "cafe", "check_date": "2024-04-14", "cuisine": "teahouse", "email": "lesalondespteachats@gmail.com", "facebook": "https://www.facebook.com/lesalondespteachats/", "name": "Le Salon des P'tea chats", "opening_hours": "Tu-Sa 14:00-18:00", "outdoor_seating": "no", "phone": "+33 6 59 60 22 96", "ref:FR:SIRET": "95116535600019", "source": "survey (Fantoir:763516090)", "theme": "cat"}}, {"type": "node", "id": 11211165185, "lat": 49.4949663, "lon": 0.1097968, "tags": {"addr:city": "Le Havre", "addr:housenumber": "6", "addr:postcode": "76600", "addr:street": "Avenue Ren\u00e9 Coty", "amenity": "cafe", "brand": "Starbucks", "brand:wikidata": "Q37158", "capacity": "50", "check_date": "2023-09-23", "cuisine": "coffee_shop", "name": "Starbucks", "official_name": "Starbucks Coffee", "outdoor_seating": "yes", "takeaway": "yes"}}, {"type": "node", "id": 11300251382, "lat": 49.4947719, "lon": 0.1100125, "tags": {"addr:city": "Le Havre", "addr:housenumber": "5", "addr:postcode": "76600", "addr:street": "Rue Albert Andr\u00e9 Huet", "amenity": "cafe", "check_date": "2024-05-12", "contact:city": "Le Havre", "contact:housenumber": "5", "contact:instagram": "lh_frenchcoffeeshop", "contact:postcode": "76600", "contact:street": "Rue Albert Andr\u00e9 Huet", "delivery": "yes", "email": "lhfrenchcoffeeshop@gmail.com", "name": "French Coffee Shop", "opening_hours": "Mo-Th 09:00-18:30; Fr 09:00-22:30; Sa 10:30-22:30", "outdoor_seating": "yes", "payment:contactless": "yes", "phone": "+33 2 35 49 88 24", "ref:FR:SIRET": "82165590900017", "source": "cadastre-dgi-fr source : Direction G\u00e9n\u00e9rale des Imp\u00f4ts - Cadastre. Mise \u00e0 jour : 2014", "website": "https://frenchcoffeeshop.com/shop/le-havre", "wheelchair": "yes"}}, {"type": "node", "id": 12112772367, "lat": 49.4897895, "lon": 0.1283896}, {"type": "node", "id": 12112772368, "lat": 49.489719, "lon": 0.1284295}, {"type": "node", "id": 12112772369, "lat": 49.4896743, "lon": 0.128242}, {"type": "node", "id": 12112772370, "lat": 49.4897448, "lon": 0.1282021}, {"type": "node", "id": 12112774505, "lat": 49.4898452, "lon": 0.1291051}, {"type": "node", "id": 12112774507, "lat": 49.4897339, "lon": 0.1291713}, {"type": "node", "id": 12112774508, "lat": 49.4897607, "lon": 0.129278}, {"type": "node", "id": 12112774509, "lat": 49.489872, "lon": 0.1292119}, {"type": "node", "id": 12829932882, "lat": 49.4972715, "lon": 0.112855, "tags": {"addr:housenumber": "56", "addr:street": "Avenue Ren\u00e9 Coty", "amenity": "cafe", "brand": "Columbus Caf\u00e9 & Co", "brand:wikidata": "Q2984582", "cuisine": "coffee_shop", "name": "Columbus Caf\u00e9 & Co", "outdoor_seating": "yes", "ref:FR:SIRET": "79200980500013", "takeaway": "yes", "website": "https://www.columbuscafe.com/", "wheelchair": "yes"}}, {"type": "node", "id": 12844692028, "lat": 49.5023837, "lon": 0.1599451, "tags": {"addr:city": "Le Havre", "addr:housenumber": "155", "addr:postcode": "76600", "addr:street": "Rue de Verdun", "amenity": "cafe", "name": "Caf\u00e9 de la Poste", "ref:FR:SIRET": "88839384000010", "smoking": "outside"}}, {"type": "node", "id": 12844692034, "lat": 49.5011049, "lon": 0.1455634, "tags": {"addr:city": "Le Havre", "addr:housenumber": "3", "addr:postcode": "76600", "addr:street": "Rue de Verdun", "amenity": "cafe", "name": "Le Fontenoy", "opening_hours": "Tu-Sa 07:00-20:00; Su 08:00-20:00; Mo 11:30-20:00", "phone": "+33 2 35 24 09 44", "ref:FR:SIRET": "93875713500018"}}, {"type": "node", "id": 12848715533, "lat": 49.4902268, "lon": 0.1053193, "tags": {"addr:city": "Le Havre", "addr:housenumber": "24", "addr:postcode": "76600", "addr:street": "Rue Bernardin de Saint-Pierre", "amenity": "cafe", "name": "Le Saint-Amour", "ref:FR:SIRET": "83991580800019"}}, {"type": "node", "id": 12848715537, "lat": 49.4907743, "lon": 0.1053538, "tags": {"addr:city": "Le Havre", "addr:housenumber": "44", "addr:postcode": "76600", "addr:street": "Rue Bernardin de Saint-Pierre", "amenity": "cafe", "check_date": "2024-11-28", "cuisine": "french", "name": "Le Sublim's", "ref:FR:SIRET": "49245810400030"}}, {"type": "way", "id": 1307980083, "nodes": [12112772370, 12112772369, 12112772368, 12112772367, 12112772370], "tags": {"addr:city": "Le Havre", "addr:housenumber": "70", "addr:postcode": "76600", "addr:street": "Quai Frissard", "amenity": "cafe", "brand": "Columbus Caf\u00e9 & Co", "brand:wikidata": "Q2984582", "cuisine": "coffee_shop", "indoor": "room", "name": "Columbus Caf\u00e9 & Co", "outdoor_seating": "yes", "takeaway": "yes", "website": "https://www.columbuscafe.com/", "wheelchair": "yes"}}, {"type": "way", "id": 1307980096, "nodes": [12112774509, 12112774505, 12112774507, 12112774508, 12112774509], "tags": {"addr:city": "Le Havre", "addr:housenumber": "70", "addr:postcode": "76600", "addr:street": "Quai Frissard", "amenity": "cafe", "brand": "Starbucks", "brand:wikidata": "Q37158", "capacity": "45", "check_date": "2024-07-22", "cuisine": "coffee_shop", "indoor": "room", "internet_access": "wlan", "level": "0", "name": "Starbucks", "official_name": "Starbucks Coffee", "opening_hours": "Mo-Sa 09:30-20:00; Su 10:30-19:00", "outdoor_seating": "yes", "ref:FR:SIRET": "44533010301149", "takeaway": "yes"}}]}